{
  "type": "FeatureCollection",
  "name": "phasing",
  "features": [
    {
      "type": "Feature",
      "id": "PHASE-001",
      "properties": {
        "id": "PHASE-001",
        "layer": "PHASE",
        "phase": "phase_1",
        "name_zh": "近期2026-2028：众智园+大钟寺站城门户",
        "source_type": "agent_generated_design",
        "confidence": "medium",
        "geometry_role": "design_proposal",
        "containment": "clipped_to_site_boundary",
        "investment_logic": "优先投入可独立运营、可形成示范并能验证后续机制的两类项目：众智园全栈测试与安全治理设施，以及大钟寺站城公共界面与四象限慢行连通；不以三处重点区简单并集作为一期边界。",
        "opening_sequence": "先开放低工程依赖的测试展示、标准工作坊和站前公共空间，再根据轨道、市政及控规复核结果推进永久建筑和站城一体工程。",
        "lead_projects": [
          "众智园全栈测试与治理客厅",
          "安全治理沙盒与标准工作坊",
          "大钟寺站城一体化公共界面"
        ],
        "gateway_conditions": [
          "重点区控规条件初步明确",
          "河道蓝线与防洪条件完成专业复核",
          "大钟寺轨道接驳和市政条件进入深化"
        ],
        "area_sqm_declared": 2270832.447
      },
      "geometry": {
        "type": "MultiPolygon",
        "coordinates": [
          [
            [
              [
                116.354,
                39.9485
              ],
              [
                116.354,
                39.944
              ],
              [
                116.346,
                39.944
              ],
              [
                116.346,
                39.9485
              ],
              [
                116.354,
                39.9485
              ]
            ]
          ],
          [
            [
              [
                116.354,
                40.026
              ],
              [
                116.354,
                40.0075
              ],
              [
                116.343,
                40.0075
              ],
              [
                116.343,
                40.026
              ],
              [
                116.354,
                40.026
              ]
            ]
          ]
        ]
      }
    },
    {
      "type": "Feature",
      "id": "PHASE-002",
      "properties": {
        "id": "PHASE-002",
        "layer": "PHASE",
        "phase": "phase_2",
        "name_zh": "中期2028-2030：原点社区+中关村服务翼慢行网",
        "source_type": "agent_generated_design",
        "confidence": "medium",
        "geometry_role": "design_proposal",
        "containment": "clipped_to_site_boundary",
        "investment_logic": "在一期测试与门户运营数据可复核后，把投资转向原点社区成果转化街、近校慢行网络和中关村服务翼，以轻改造和首层激活串联高校成果、孵化服务与社区生活。",
        "opening_sequence": "先开放成果发布厅、创客客厅与临时慢行连线，再逐段实施成果转化街、首层业态更新和绿廊中段缝合。",
        "lead_projects": [
          "原点社区近校成果转化街",
          "开源成果发布轴",
          "中关村服务翼慢行网"
        ],
        "gateway_conditions": [
          "一期运营数据通过复盘",
          "校区边界和权属条件完成核验",
          "慢行断点交通评估完成"
        ],
        "area_sqm_declared": 2449533.14
      },
      "geometry": {
        "type": "Polygon",
        "coordinates": [
          [
            [
              116.3545,
              40.0119
            ],
            [
              116.3533,
              39.99
            ],
            [
              116.3545,
              39.975
            ],
            [
              116.3545,
              39.952
            ],
            [
              116.3512,
              39.952
            ],
            [
              116.3512,
              39.9835
            ],
            [
              116.342,
              39.9835
            ],
            [
              116.342,
              39.9935
            ],
            [
              116.3512,
              39.9935
            ],
            [
              116.3512,
              40.0075
            ],
            [
              116.354,
              40.0075
            ],
            [
              116.354,
              40.018
            ],
            [
              116.3545,
              40.018
            ],
            [
              116.3545,
              40.0119
            ]
          ]
        ]
      }
    },
    {
      "type": "Feature",
      "id": "PHASE-003",
      "properties": {
        "id": "PHASE-003",
        "layer": "PHASE",
        "phase": "phase_3",
        "name_zh": "远期2030+：小月河场景翼+全域节点织补",
        "source_type": "agent_generated_design",
        "confidence": "medium",
        "geometry_role": "design_proposal",
        "containment": "clipped_to_site_boundary",
        "investment_logic": "在测试、转化和门户三类机制稳定后，以较低边际成本向小月河场景翼和全域社区节点复制成熟模块，重点补齐连续绿道、公共服务和场景运营网络。",
        "opening_sequence": "按需求和绩效滚动开放场景节点，先织补断点，再扩展跨片区服务；永久建设以官方红线、实施评估和年度预算为前提。",
        "lead_projects": [
          "小月河真实场景试验网络",
          "京张绿廊断点织补",
          "全域AI公共服务节点"
        ],
        "gateway_conditions": [
          "二期成果转化与公共空间运营达到评估目标",
          "场景开放的数据治理规则成熟",
          "官方边界和实施条件完成复核"
        ],
        "area_sqm_declared": 6692494.466
      },
      "geometry": {
        "type": "Polygon",
        "coordinates": [
          [
            [
              116.3553,
              39.965
            ],
            [
              116.3553,
              39.939
            ],
            [
              116.3407,
              39.939
            ],
            [
              116.3397,
              39.975
            ],
            [
              116.3417,
              40.006
            ],
            [
              116.3427,
              40.0265
            ],
            [
              116.3553,
              40.0265
            ],
            [
              116.3545,
              40.0119
            ],
            [
              116.3545,
              40.018
            ],
            [
              116.354,
              40.018
            ],
            [
              116.354,
              40.026
            ],
            [
              116.343,
              40.026
            ],
            [
              116.343,
              40.0075
            ],
            [
              116.3512,
              40.0075
            ],
            [
              116.3512,
              39.9935
            ],
            [
              116.342,
              39.9935
            ],
            [
              116.342,
              39.9835
            ],
            [
              116.3512,
              39.9835
            ],
            [
              116.3512,
              39.952
            ],
            [
              116.3545,
              39.952
            ],
            [
              116.3545,
              39.975
            ],
            [
              116.3533,
              39.99
            ],
            [
              116.3553,
              39.965
            ]
          ],
          [
            [
              116.354,
              39.9485
            ],
            [
              116.346,
              39.9485
            ],
            [
              116.346,
              39.944
            ],
            [
              116.354,
              39.944
            ],
            [
              116.354,
              39.9485
            ]
          ]
        ]
      }
    }
  ]
}
